COMMENT,ORIGINATOR,NORAD_CAT_ID,OBJECT_NAME,OBJECT_TYPE,CLASSIFICATION_TYPE,INTLDES,EPOCH,EPOCH_MICROSECONDS,MEAN_MOTION,ECCENTRICITY,INCLINATION,RA_OF_ASC_NODE,ARG_OF_PERICENTER,MEAN_ANOMALY,EPHEMERIS_TYPE,ELEMENT_SET_NO,REV_AT_EPOCH,BSTAR,MEAN_MOTION_DOT,MEAN_MOTION_DDOT,FILE,TLE_LINE0,TLE_LINE1,TLE_LINE2,OBJECT_ID,OBJECT_NUMBER,SEMIMAJOR_AXIS,PERIOD,APOGEE,PERIGEE,DECAYED
GENERATED VIA SPACETRACK.ORG API,18 SPCS,58292,UMBRA-08,PAYLOAD,U,23174AN,2025-12-10 14:07:49,766016,15.834826754,0.00085099347,97.381818,63.745711,298.18586,61.855071,0,999,11643,0.0037613175,0.0090461676,0,4923342,0 UMBRA-08,1 58292U 23174AN  25344.58877044  .00904617  00000-0  37613-2 0  9993,2 58292  97.3818  63.7457 0008510 298.1859  61.8551 15.83482675116432,2023-174AN,58292,6698.738,90.939,326.303,314.902,1
GENERATED VIA SPACETRACK.ORG API,18 SPCS,58292,UMBRA-08,PAYLOAD,U,23174AN,2025-12-10 18:40:48,224352,15.83821333,0.0008786,97.3816,63.9499,299.9986,60.0411,0,999,11646,0.0033328,0.00805278,0,4923789,0 UMBRA-08,1 58292U 23174AN  25344.77833593  .00805278  00000-0  33328-2 0  9997,2 58292  97.3816  63.9499 0008786 299.9986  60.0411 15.83821333116460,2023-174AN,58292,6697.783,90.919,325.532,313.763,1
GENERATED VIA SPACETRACK.ORG API,18 SPCS,58292,UMBRA-08,PAYLOAD,U,23174AN,2025-12-10 18:40:48,224352,15.838213333,0.00087863055,97.381613,63.949855,299.99858,60.041118,0,999,11646,0.0033327648,0.0080527767,0,4924027,0 UMBRA-08,1 58292U 23174AN  25344.77833593  .00805278  00000-0  33328-2 0  9997,2 58292  97.3816  63.9499 0008786 299.9986  60.0411 15.83821333116460,2023-174AN,58292,6697.783,90.919,325.533,313.763,1
GENERATED VIA SPACETRACK.ORG API,18 SPCS,58292,UMBRA-08,PAYLOAD,U,23174AN,2025-12-11 11:21:10,220544,15.851753545,0.00094968058,97.382135,64.699928,301.04131,58.992411,0,999,11657,0.0040222519,0.010669396,0,4924847,0 UMBRA-08,1 58292U 23174AN  25345.47303496  .01066940  00000-0  40223-2 0  9997,2 58292  97.3821  64.6999 0009497 301.0413  58.9924 15.85175355116574,2023-174AN,58292,6693.968,90.842,322.190,309.476,1
GENERATED VIA SPACETRACK.ORG API,18 SPCS,58292,UMBRA-08,PAYLOAD,U,23174AN,2025-12-11 23:28:09,234624,15.861622284,0.00095708659,97.38112,65.243886,301.71096,58.322754,0,999,11665,0.0036240192,0.010000119,0,4924904,0 UMBRA-08,1 58292U 23174AN  25345.97788466  .01000012  00000-0  36240-2 0  9998,2 58292  97.3811  65.2439 0009571 301.7110  58.3228 15.86162228116659,2023-174AN,58292,6691.191,90.785,319.460,306.652,1
GENERATED VIA SPACETRACK.ORG API,18 SPCS,58292,UMBRA-08,PAYLOAD,U,23174AN,2025-12-12 04:00:39,340800,15.86569023,0.0009612,97.381,65.4484,301.8406,58.1928,0,999,11668,0.0039242,0.01118835,0,4925322,0 UMBRA-08,1 58292U 23174AN  25346.16712200  .01118835  00000-0  39242-2 0  9991,2 58292  97.3810  65.4484 0009612 301.8406  58.1928 15.86569023116687,2023-174AN,58292,6690.047,90.762,318.343,305.482,1
GENERATED VIA SPACETRACK.ORG API,18 SPCS,58292,UMBRA-08,PAYLOAD,U,23174AN,2025-12-12 07:02:17,389248,15.867970605,0.00096261737,97.380798,65.584864,302.09013,57.943468,0,999,11670,0.0037255288,0.010678333,0,4925670,0 UMBRA-08,1 58292U 23174AN  25346.29325682  .01067833  00000-0  37255-2 0  9992,2 58292  97.3808  65.5849 0009626 302.0901  57.9435 15.86797061116706,2023-174AN,58292,6689.406,90.749,317.711,304.832,1
GENERATED VIA SPACETRACK.ORG API,18 SPCS,58292,UMBRA-08,PAYLOAD,U,23174AN,2025-12-12 23:40:45,569856,15.882406965,0.00098001561,97.379903,66.335287,302.57274,57.459753,0,999,11681,0.0039516751,0.010733703,0.0004847021,4925723,0 UMBRA-08,1 58292U 23174AN  25346.98663854  .01073370  48470-3  39517-2 0  9996,2 58292  97.3799  66.3353 0009800 302.5727  57.4598 15.88240697116816,2023-174AN,58292,6685.352,90.666,313.769,300.665,1
GENERATED VIA SPACETRACK.ORG API,18 SPCS,58292,UMBRA-08,PAYLOAD,U,23174AN,2025-12-13 07:14:16,742688,15.890151443,0.00097949768,97.379421,66.676806,303.02546,57.007603,0,999,11686,0.0040748471,0.011488384,0.00057095456,4925758,0 UMBRA-08,1 58292U 23174AN  25347.30158267  .01148838  57095-3  40748-2 0  9993,2 58292  97.3794  66.6768 0009795 303.0255  57.0076 15.89015144116869,2023-174AN,58292,6683.180,90.622,311.591,298.499,1
GENERATED VIA SPACETRACK.ORG API,18 SPCS,58292,UMBRA-08,PAYLOAD,U,23174AN,2025-12-13 16:18:14,996736,15.897884055,0.0009869003,97.379429,67.087777,302.83296,57.199227,0,999,11692,0.0035299385,0.010360439,0.00045769863,4925770,0 UMBRA-08,1 58292U 23174AN  25347.67934024  .01036044  45770-3  35299-2 0  9993,2 58292  97.3794  67.0878 0009869 302.8330  57.1992 15.89788406116922,2023-174AN,58292,6681.013,90.578,309.471,296.284,1
GENERATED VIA SPACETRACK.ORG API,18 SPCS,58292,UMBRA-08,PAYLOAD,U,23174AN,2025-12-13 22:20:44,960352,15.90288573,0.0010266113,97.378881,67.360148,304.38947,55.640685,0,999,11696,0.0032683926,0.0098469706,0.00041169591,4925779,0 UMBRA-08,1 58292U 23174AN  25347.93107593  .00984697  41170-3  32684-2 0  9995,2 58292  97.3789  67.3601 0010266 304.3895  55.6407 15.90288573116969,2023-174AN,58292,6679.612,90.550,308.334,294.619,1
GENERATED VIA SPACETRACK.ORG API,18 SPCS,58292,UMBRA-08,PAYLOAD,U,23174AN,2025-12-14 05:53:42,905472,15.909175367,0.001037668,97.378381,67.701662,304.70831,55.32121,0,999,11701,0.0031924764,0.0099293605,0.0004231239,4925820,0 UMBRA-08,1 58292U 23174AN  25348.24563548  .00992936  42312-3  31925-2 0  9997,2 58292  97.3784  67.7017 0010377 304.7083  55.3212 15.90917537117012,2023-174AN,58292,6677.851,90.514,306.645,292.787,1
GENERATED VIA SPACETRACK.ORG API,18 SPCS,58292,UMBRA-08,PAYLOAD,U,23174AN,2025-12-14 22:29:40,524576,15.921290138,0.0010853645,97.378044,68.454118,306.26195,53.765087,0,999,11712,0.0027031995,0.0089596068,0.00034312471,4925847,0 UMBRA-08,1 58292U 23174AN  25348.93727459  .00895961  34312-3  27032-2 0  9991,2 58292  97.3780  68.4541 0010854 306.2620  53.7651 15.92129014117120,2023-174AN,58292,6674.463,90.445,303.572,289.084,1
GENERATED VIA SPACETRACK.ORG API,18 SPCS,58292,UMBRA-08,PAYLOAD,U,23174AN,2025-12-15 07:32:35,620224,15.928118851,0.0010853673,97.377729,68.865166,306.57933,53.448156,0,999,11718,0.002542907,0.0087335751,0.00032760634,4925932,0 UMBRA-08,1 58292U 23174AN  25349.31430116  .00873358  32761-3  25429-2 0  9995,2 58292  97.3777  68.8652 0010854 306.5793  53.4482 15.92811885117186,2023-174AN,58292,6672.555,90.406,301.662,287.178,1
GENERATED VIA SPACETRACK.ORG API,18 SPCS,58292,UMBRA-08,PAYLOAD,U,23174AN,2025-12-15 18:05:42,130176,15.93615596,0.0011029,97.3778,69.345,306.599,53.427,0,999,11725,0.0024187,0.00866525,0.00032575,4925926,0 UMBRA-08,1 58292U 23174AN  25349.75395984  .00866525  32575-3  24187-2 0  9997,2 58292  97.3778  69.3450 0011029 306.5990  53.4270 15.93615596117258,2023-174AN,58292,6670.312,90.361,299.533,284.820,1
GENERATED VIA SPACETRACK.ORG API,18 SPCS,58292,UMBRA-08,PAYLOAD,U,23174AN,2025-12-15 18:05:42,130176,15.93615596,0.0011029357,97.377829,69.344973,306.59898,53.426962,0,999,11725,0.00241875,0.0086652542,0.00032575116,4925951,0 UMBRA-08,1 58292U 23174AN  25349.75395984  .00866525  32575-3  24188-2 0  9998,2 58292  97.3778  69.3450 0011029 306.5990  53.4270 15.93615596117258,2023-174AN,58292,6670.312,90.361,299.534,284.820,1
GENERATED VIA SPACETRACK.ORG API,18 SPCS,58292,UMBRA-08,PAYLOAD,U,23174AN,2025-12-16 18:11:15,702432,15.96261126,0.0011093,97.3764,70.4423,306.4435,53.5818,0,999,11741,0.0031353,0.01284307,0.00082591,4926066,0 UMBRA-08,1 58292U 23174AN  25350.75782063  .01284307  82591-3  31353-2 0  9996,2 58292  97.3764  70.4423 0011093 306.4435  53.5818 15.96261126117416,2023-174AN,58292,6662.940,90.211,292.196,277.414,1
GENERATED VIA SPACETRACK.ORG API,18 SPCS,58292,UMBRA-08,PAYLOAD,U,23174AN,2025-12-16 18:11:15,703296,15.962611258,0.0011093477,97.376449,70.442284,306.44346,53.581822,0,999,11741,0.0031353377,0.012843071,0.0008259143,4926108,0 UMBRA-08,1 58292U 23174AN  25350.75782064  .01284307  82591-3  31353-2 0  9997,2 58292  97.3764  70.4423 0011093 306.4435  53.5818 15.96261126117416,2023-174AN,58292,6662.940,90.211,292.196,277.413,1
GENERATED VIA SPACETRACK.ORG API,18 SPCS,58292,UMBRA-08,PAYLOAD,U,23174AN,2025-12-17 00:12:14,674752,15.97086803,0.0011147,97.3767,70.7168,300.9894,59.0287,0,999,11745,0.00338,0.01442317,0.0011044,4926113,0 UMBRA-08,1 58292U 23174AN  25351.00850318  .01442317  11044-2  33800-2 0  9994,2 58292  97.3767  70.7168 0011147 300.9894  59.0287 15.97086803117459,2023-174AN,58292,6660.643,90.164,289.933,275.083,1
GENERATED VIA SPACETRACK.ORG API,18 SPCS,58292,UMBRA-08,PAYLOAD,U,23174AN,2025-12-17 00:12:14,674752,15.970868028,0.0011147323,97.376693,70.716797,300.98935,59.028741,0,999,11745,0.0033800299,0.014423166,0.0011043585,4926125,0 UMBRA-08,1 58292U 23174AN  25351.00850318  .01442317  11044-2  33800-2 0  9994,2 58292  97.3767  70.7168 0011147 300.9894  59.0287 15.97086803117459,2023-174AN,58292,6660.643,90.164,289.933,275.083,1
GENERATED VIA SPACETRACK.ORG API,18 SPCS,58292,UMBRA-08,PAYLOAD,U,23174AN,2025-12-17 18:14:08,795328,15.99483686,0.0011233,97.3757,71.5431,300.056,59.9603,0,999,11757,0.003345,0.01619676,0.001538,4926210,0 UMBRA-08,1 58292U 23174AN  25351.75982402  .01619676  15380-2  33450-2 0  9998,2 58292  97.3757  71.5431 0011233 300.0560  59.9603 15.99483686117573,2023-174AN,58292,6653.987,90.029,283.327,268.378,1
GENERATED VIA SPACETRACK.ORG API,18 SPCS,58292,UMBRA-08,PAYLOAD,U,23174AN,2025-12-17 21:14:18,17664,15.99909382,0.0011107,97.3759,71.6805,296.6203,63.3937,0,999,11759,0.0033316,0.01649877,0.0016255,4926238,0 UMBRA-08,1 58292U 23174AN  25351.88493076  .01649877  16255-2  33316-2 0  9995,2 58292  97.3759  71.6805 0011107 296.6203  63.3937 15.99909382117592,2023-174AN,58292,6652.807,90.005,282.061,267.283,1
